GLOBALSTAR M084 [+]     
1 38040U 11080A   24063.34147402 -.00000095  00000+0  48142-4 0  9992
2 38040  52.0018  41.8977 0000673  88.9397  58.8394 12.62271492563208
GLOBALSTAR M080 [+]     
1 38041U 11080B   24063.39817265 -.00000099  00000+0  29207-4 0  9994
2 38041  52.0070  43.1675 0000781  76.0245  88.7726 12.62269535563337
GLOBALSTAR M082 [+]     
1 38042U 11080C   24063.14040427 -.00000091  00000+0  70697-4 0  9997
2 38042  52.0106 359.3504 0000173 194.2299 178.9599 12.62266222564014
GLOBALSTAR M092 [+]     
1 38043U 11080D   24063.35299946 -.00000106  00000+0 -10295-4 0  9999
2 38043  52.0075  89.0554 0000633 121.1420 257.7983 12.62276871562492
GLOBALSTAR M090 [+]     
1 38044U 11080E   24063.57104253 -.00000085  00000+0  10204-3 0  9994
2 38044  51.9916 352.4536 0000269  71.2802 340.7568 12.62266586564188
GLOBALSTAR M086 [+]     
1 38045U 11080F   24063.22267031 -.00000088  00000+0  87340-4 0  9990
2 38045  51.9927 354.0298 0001193  20.3547 127.2037 12.62267717564087
GLOBALSTAR M097 [+]     
1 39072U 13005A   24063.29577797 -.00000076  00000+0  15393-3 0  9995
2 39072  52.0028 267.8767 0000650  67.7450 292.3486 12.62261367511347
GLOBALSTAR M093 [+]     
1 39073U 13005B   24063.50678417 -.00000080  00000+0  13035-3 0  9997
2 39073  51.9789 261.2897 0000608  63.2353 296.8576 12.62261695511329
